[{"OBJECT_NAME":"STARLINK-31577","OBJECT_ID":"2024-046C","EPOCH":"2026-03-09T22:00:01.999584","MEAN_MOTION":15.30204734,"ECCENTRICITY":0.00012761,"INCLINATION":53.1581,"RA_OF_ASC_NODE":153.9126,"ARG_OF_PERICENTER":87.0446,"MEAN_ANOMALY":126.6038,"EPHEMERIS_TYPE":0,"CLASSIFICATION_TYPE":"U","NORAD_CAT_ID":59203,"ELEMENT_SET_NO":999,"REV_AT_EPOCH":586,"BSTAR":-0.00059801654,"MEAN_MOTION_DOT":-0.00018031,"MEAN_MOTION_DDOT":0},{"OBJECT_NAME":"TRANSPORTER-11 OBJECT A","OBJECT_ID":"2024-149A","EPOCH":"2026-03-09T17:54:54.302112","MEAN_MOTION":15.31141332,"ECCENTRICITY":0.00031096,"INCLINATION":97.378,"RA_OF_ASC_NODE":149.0949,"ARG_OF_PERICENTER":191.001,"MEAN_ANOMALY":169.1164,"EPHEMERIS_TYPE":0,"CLASSIFICATION_TYPE":"U","NORAD_CAT_ID":60468,"ELEMENT_SET_NO":999,"REV_AT_EPOCH":8683,"BSTAR":0.00036053677,"MEAN_MOTION_DOT":0.00010774,"MEAN_MOTION_DDOT":0}]
